{"fetched_at":"2026-07-22T07:09:25.426Z","source":"https://celestrak.org/NORAD/elements/gp.php?GROUP=qianfan&FORMAT=JSON","constellation":"qianfan","records":[{"OBJECT_NAME":"QIANFAN-177","OBJECT_ID":"2026-124N","EPOCH":"2026-07-21T10:49:44.442048","CLASSIFICATION_TYPE":"U","MEAN_MOTION":13.85215099,"ECCENTRICITY":0.00090847,"INCLINATION":88.9997,"RA_OF_ASC_NODE":358.1851,"ARG_OF_PERICENTER":56.4526,"MEAN_ANOMALY":303.7511,"EPHEMERIS_TYPE":0,"NORAD_CAT_ID":69394,"ELEMENT_SET_NO":999,"REV_AT_EPOCH":665,"BSTAR":-1.9325893,"MEAN_MOTION_DOT":-0.02042344,"MEAN_MOTION_DDOT":0},{"OBJECT_NAME":"QIANFAN-178","OBJECT_ID":"2026-124P","EPOCH":"2026-07-21T13:51:19.927008","CLASSIFICATION_TYPE":"U","MEAN_MOTION":13.88089794,"ECCENTRICITY":0.00061787,"INCLINATION":88.9991,"RA_OF_ASC_NODE":358.1677,"ARG_OF_PERICENTER":23.2164,"MEAN_ANOMALY":336.9286,"EPHEMERIS_TYPE":0,"NORAD_CAT_ID":69395,"ELEMENT_SET_NO":999,"REV_AT_EPOCH":667,"BSTAR":-1.8307633,"MEAN_MOTION_DOT":-0.02032336,"MEAN_MOTION_DDOT":0},{"OBJECT_NAME":"QIANFAN-179","OBJECT_ID":"2026-124Q","EPOCH":"2026-07-21T11:47:37.713408","CLASSIFICATION_TYPE":"U","MEAN_MOTION":13.88078848,"ECCENTRICITY":0.00032412,"INCLINATION":88.9999,"RA_OF_ASC_NODE":358.1735,"ARG_OF_PERICENTER":167.4757,"MEAN_ANOMALY":192.6496,"EPHEMERIS_TYPE":0,"NORAD_CAT_ID":69396,"ELEMENT_SET_NO":999,"REV_AT_EPOCH":666,"BSTAR":-1.8466741,"MEAN_MOTION_DOT":-0.0204825,"MEAN_MOTION_DDOT":0},{"OBJECT_NAME":"QIANFAN-180","OBJECT_ID":"2026-124R","EPOCH":"2026-07-21T13:48:04.100544","CLASSIFICATION_TYPE":"U","MEAN_MOTION":13.85356586,"ECCENTRICITY":0.00078768,"INCLINATION":88.9999,"RA_OF_ASC_NODE":358.1662,"ARG_OF_PERICENTER":57.808,"MEAN_ANOMALY":302.3854,"EPHEMERIS_TYPE":0,"NORAD_CAT_ID":69397,"ELEMENT_SET_NO":999,"REV_AT_EPOCH":667,"BSTAR":-1.9066741,"MEAN_MOTION_DOT":-0.02021135,"MEAN_MOTION_DDOT":0},{"OBJECT_NAME":"QIANFAN-181","OBJECT_ID":"2026-124S","EPOCH":"2026-07-21T12:03:19.508832","CLASSIFICATION_TYPE":"U","MEAN_MOTION":13.76831703,"ECCENTRICITY":0.00013463,"INCLINATION":89.0011,"RA_OF_ASC_NODE":358.2298,"ARG_OF_PERICENTER":100.5723,"MEAN_ANOMALY":259.5594,"EPHEMERIS_TYPE":0,"NORAD_CAT_ID":69398,"ELEMENT_SET_NO":999,"REV_AT_EPOCH":663,"BSTAR":-2.2169202,"MEAN_MOTION_DOT":-0.02034716,"MEAN_MOTION_DDOT":0},{"OBJECT_NAME":"QIANFAN-182","OBJECT_ID":"2026-124T","EPOCH":"2026-07-21T14:08:14.917920","CLASSIFICATION_TYPE":"U","MEAN_MOTION":13.77158001,"ECCENTRICITY":0.00068092,"INCLINATION":88.9982,"RA_OF_ASC_NODE":358.2069,"ARG_OF_PERICENTER":71.4752,"MEAN_ANOMALY":288.7153,"EPHEMERIS_TYPE":0,"NORAD_CAT_ID":69399,"ELEMENT_SET_NO":999,"REV_AT_EPOCH":664,"BSTAR":-2.2793346,"MEAN_MOTION_DOT":-0.02099141,"MEAN_MOTION_DDOT":0},{"OBJECT_NAME":"QIANFAN-183","OBJECT_ID":"2026-125A","EPOCH":"2026-07-21T12:20:56.869440","CLASSIFICATION_TYPE":"U","MEAN_MOTION":13.8445728,"ECCENTRICITY":0.00208613,"INCLINATION":88.9931,"RA_OF_ASC_NODE":276.6129,"ARG_OF_PERICENTER":67.784,"MEAN_ANOMALY":292.5541,"EPHEMERIS_TYPE":0,"NORAD_CAT_ID":69401,"ELEMENT_SET_NO":999,"REV_AT_EPOCH":653,"BSTAR":-1.993666,"MEAN_MOTION_DOT":-0.02080077,"MEAN_MOTION_DDOT":0},{"OBJECT_NAME":"QIANFAN-184","OBJECT_ID":"2026-125B","EPOCH":"2026-07-21T10:37:55.383168","CLASSIFICATION_TYPE":"U","MEAN_MOTION":13.81853278,"ECCENTRICITY":0.00256707,"INCLINATION":88.9931,"RA_OF_ASC_NODE":276.6221,"ARG_OF_PERICENTER":66.6663,"MEAN_ANOMALY":293.7203,"EPHEMERIS_TYPE":0,"NORAD_CAT_ID":69402,"ELEMENT_SET_NO":999,"REV_AT_EPOCH":652,"BSTAR":-2.0797954,"MEAN_MOTION_DOT":-0.02078348,"MEAN_MOTION_DDOT":0},{"OBJECT_NAME":"QIANFAN-185","OBJECT_ID":"2026-125C","EPOCH":"2026-07-21T12:38:58.255296","CLASSIFICATION_TYPE":"U","MEAN_MOTION":13.94486801,"ECCENTRICITY":0.00226965,"INCLINATION":88.9939,"RA_OF_ASC_NODE":276.5969,"ARG_OF_PERICENTER":71.1584,"MEAN_ANOMALY":289.2051,"EPHEMERIS_TYPE":0,"NORAD_CAT_ID":69403,"ELEMENT_SET_NO":999,"REV_AT_EPOCH":654,"BSTAR":-1.6162129,"MEAN_MOTION_DOT":-0.02009357,"MEAN_MOTION_DDOT":0},{"OBJECT_NAME":"QIANFAN-186","OBJECT_ID":"2026-125D","EPOCH":"2026-07-21T12:03:27.708192","CLASSIFICATION_TYPE":"U","MEAN_MOTION":13.81876596,"ECCENTRICITY":0.00256057,"INCLINATION":88.994,"RA_OF_ASC_NODE":276.6137,"ARG_OF_PERICENTER":65.5962,"MEAN_ANOMALY":294.7875,"EPHEMERIS_TYPE":0,"NORAD_CAT_ID":69404,"ELEMENT_SET_NO":999,"REV_AT_EPOCH":653,"BSTAR":-2.0770238,"MEAN_MOTION_DOT":-0.020765,"MEAN_MOTION_DDOT":0},{"OBJECT_NAME":"QIANFAN-187","OBJECT_ID":"2026-125E","EPOCH":"2026-07-21T11:19:03.013824","CLASSIFICATION_TYPE":"U","MEAN_MOTION":13.82435268,"ECCENTRICITY":0.00269694,"INCLINATION":88.9936,"RA_OF_ASC_NODE":276.6061,"ARG_OF_PERICENTER":57.9324,"MEAN_ANOMALY":302.4459,"EPHEMERIS_TYPE":0,"NORAD_CAT_ID":69405,"ELEMENT_SET_NO":999,"REV_AT_EPOCH":653,"BSTAR":-2.0110972,"MEAN_MOTION_DOT":-0.02033216,"MEAN_MOTION_DDOT":0},{"OBJECT_NAME":"QIANFAN-188","OBJECT_ID":"2026-125F","EPOCH":"2026-07-21T13:49:50.177280","CLASSIFICATION_TYPE":"U","MEAN_MOTION":13.84804183,"ECCENTRICITY":0.00222475,"INCLINATION":88.9934,"RA_OF_ASC_NODE":276.5846,"ARG_OF_PERICENTER":64.6068,"MEAN_ANOMALY":295.7402,"EPHEMERIS_TYPE":0,"NORAD_CAT_ID":69406,"ELEMENT_SET_NO":999,"REV_AT_EPOCH":655,"BSTAR":-1.833011,"MEAN_MOTION_DOT":-0.01933959,"MEAN_MOTION_DDOT":0},{"OBJECT_NAME":"QIANFAN-189","OBJECT_ID":"2026-125G","EPOCH":"2026-07-21T12:33:38.565792","CLASSIFICATION_TYPE":"U","MEAN_MOTION":13.8432778,"ECCENTRICITY":0.00228307,"INCLINATION":88.9932,"RA_OF_ASC_NODE":276.5966,"ARG_OF_PERICENTER":64.1769,"MEAN_ANOMALY":296.1753,"EPHEMERIS_TYPE":0,"NORAD_CAT_ID":69407,"ELEMENT_SET_NO":999,"REV_AT_EPOCH":653,"BSTAR":-1.9593111,"MEAN_MOTION_DOT":-0.02043043,"MEAN_MOTION_DDOT":0},{"OBJECT_NAME":"QIANFAN-190","OBJECT_ID":"2026-125H","EPOCH":"2026-07-21T12:18:45.536256","CLASSIFICATION_TYPE":"U","MEAN_MOTION":13.86012633,"ECCENTRICITY":0.00187334,"INCLINATION":88.9937,"RA_OF_ASC_NODE":276.5953,"ARG_OF_PERICENTER":58.3609,"MEAN_ANOMALY":301.9387,"EPHEMERIS_TYPE":0,"NORAD_CAT_ID":69408,"ELEMENT_SET_NO":999,"REV_AT_EPOCH":654,"BSTAR":-1.9215647,"MEAN_MOTION_DOT":-0.02059379,"MEAN_MOTION_DDOT":0},{"OBJECT_NAME":"QIANFAN-191","OBJECT_ID":"2026-125J","EPOCH":"2026-07-21T12:01:50.709504","CLASSIFICATION_TYPE":"U","MEAN_MOTION":13.83147558,"ECCENTRICITY":0.00244013,"INCLINATION":88.9936,"RA_OF_ASC_NODE":276.5935,"ARG_OF_PERICENTER":68.2842,"MEAN_ANOMALY":292.0921,"EPHEMERIS_TYPE":0,"NORAD_CAT_ID":69409,"ELEMENT_SET_NO":999,"REV_AT_EPOCH":654,"BSTAR":-1.984817,"MEAN_MOTION_DOT":-0.02030146,"MEAN_MOTION_DDOT":0},{"OBJECT_NAME":"QIANFAN-192","OBJECT_ID":"2026-125K","EPOCH":"2026-07-21T11:42:28.120608","CLASSIFICATION_TYPE":"U","MEAN_MOTION":13.83736294,"ECCENTRICITY":0.00240917,"INCLINATION":88.9941,"RA_OF_ASC_NODE":276.5915,"ARG_OF_PERICENTER":54.2785,"MEAN_ANOMALY":306.0621,"EPHEMERIS_TYPE":0,"NORAD_CAT_ID":69410,"ELEMENT_SET_NO":999,"REV_AT_EPOCH":654,"BSTAR":-1.9956595,"MEAN_MOTION_DOT":-0.0205948,"MEAN_MOTION_DDOT":0}]}
