{"epoch":1784710044,"count":18256,"objects":[{"id":"69394","name":"QIANFAN-177","type":"PAYLOAD","l1":"1 69394U 26124N   26202.45120882 -.02042344  00000-0 -19326+1 0  9990","l2":"2 69394  88.9997 358.1851 0009085  56.4526 303.7511 13.85215099  6654"},{"id":"69395","name":"QIANFAN-178","type":"PAYLOAD","l1":"1 69395U 26124P   26202.57731397 -.02032336  00000-0 -18308+1 0  9992","l2":"2 69395  88.9991 358.1677 0006179  23.2164 336.9286 13.88089794  6679"},{"id":"69396","name":"QIANFAN-179","type":"PAYLOAD","l1":"1 69396U 26124Q   26202.49140872 -.02048250  00000-0 -18467+1 0  9994","l2":"2 69396  88.9999 358.1735 0003241 167.4757 192.6496 13.88078848  6666"},{"id":"69397","name":"QIANFAN-180","type":"PAYLOAD","l1":"1 69397U 26124R   26202.57504746 -.02021135  00000-0 -19067+1 0  9998","l2":"2 69397  88.9999 358.1662 0007877  57.8080 302.3854 13.85356586  6670"},{"id":"69398","name":"QIANFAN-181","type":"PAYLOAD","l1":"1 69398U 26124S   26202.50230913 -.02034716  00000-0 -22169+1 0  9990","l2":"2 69398  89.0011 358.2298 0001346 100.5723 259.5594 13.76831703  6638"},{"id":"69399","name":"QIANFAN-182","type":"PAYLOAD","l1":"1 69399U 26124T   26202.58906155 -.02099141  00000-0 -22793+1 0  9993","l2":"2 69399  88.9982 358.2069 0006809  71.4752 288.7153 13.77158001  6647"},{"id":"69401","name":"QIANFAN-183","type":"PAYLOAD","l1":"1 69401U 26125A   26202.51454710 -.02080077  00000-0 -19937+1 0  9990","l2":"2 69401  88.9931 276.6129 0020861  67.7840 292.5541 13.84457280  6536"},{"id":"69402","name":"QIANFAN-184","type":"PAYLOAD","l1":"1 69402U 26125B   26202.44300212 -.02078348  00000-0 -20798+1 0  9995","l2":"2 69402  88.9931 276.6221 0025671  66.6663 293.7203 13.81853278  6526"},{"id":"69403","name":"QIANFAN-185","type":"PAYLOAD","l1":"1 69403U 26125C   26202.52706314 -.02009357  00000-0 -16162+1 0  9992","l2":"2 69403  88.9939 276.5969 0022697  71.1584 289.2051 13.94486801  6542"},{"id":"69404","name":"QIANFAN-186","type":"PAYLOAD","l1":"1 69404U 26125D   26202.50240403 -.02076500  00000-0 -20770+1 0  9997","l2":"2 69404  88.9940 276.6137 0025606  65.5962 294.7875 13.81876596  6537"},{"id":"69405","name":"QIANFAN-187","type":"PAYLOAD","l1":"1 69405U 26125E   26202.47156266 -.02033216  00000-0 -20111+1 0  9993","l2":"2 69405  88.9936 276.6061 0026969  57.9324 302.4459 13.82435268  6532"},{"id":"69406","name":"QIANFAN-188","type":"PAYLOAD","l1":"1 69406U 26125F   26202.57627520 -.01933959  00000-0 -18330+1 0  9993","l2":"2 69406  88.9934 276.5846 0022248  64.6068 295.7402 13.84804183  6559"},{"id":"69407","name":"QIANFAN-189","type":"PAYLOAD","l1":"1 69407U 26125G   26202.52336303 -.02043043  00000-0 -19593+1 0  9994","l2":"2 69407  88.9932 276.5966 0022831  64.1769 296.1753 13.84327780  6537"},{"id":"69408","name":"QIANFAN-190","type":"PAYLOAD","l1":"1 69408U 26125H   26202.51302704 -.02059379  00000-0 -19216+1 0  9993","l2":"2 69408  88.9937 276.5953 0018733  58.3609 301.9387 13.86012633  6542"},{"id":"69409","name":"QIANFAN-191","type":"PAYLOAD","l1":"1 69409U 26125J   26202.50128136 -.02030146  00000-0 -19848+1 0  9990","l2":"2 69409  88.9936 276.5935 0024401  68.2842 292.0921 13.83147558  6546"},{"id":"69410","name":"QIANFAN-192","type":"PAYLOAD","l1":"1 69410U 26125K   26202.48782547 -.02059480  00000-0 -19957+1 0  9994","l2":"2 69410  88.9941 276.5915 0024092  54.2785 306.0621 13.83736294  6543"}]}